CCSDS_OMM_VERS = 2.0
CREATION_DATE  = 
ORIGINATOR     = 

OBJECT_NAME    = STARLINK-36144
OBJECT_ID      = 2026-033J
CENTER_NAME    = EARTH
REF_FRAME      = TEME
TIME_SYSTEM    = UTC
MEAN_ELEMENT_THEORY = SGP/SGP4

EPOCH          = 2026-03-09T11:58:26.810688
MEAN_MOTION    = 15.82053366
ECCENTRICITY   = .0001686
INCLINATION    = 42.9980
RA_OF_ASC_NODE = 272.6086
ARG_OF_PERICENTER = 278.8763
MEAN_ANOMALY   = 81.1918

EPHEMERIS_TYPE = 0
CLASSIFICATION_TYPE = U
NORAD_CAT_ID   = 67829
ELEMENT_SET_NO = 999
REV_AT_EPOCH   = 459
BSTAR          = .15018E-2
MEAN_MOTION_DOT = .328573E-2
MEAN_MOTION_DDOT = 0

CCSDS_OMM_VERS = 2.0
CREATION_DATE  = 
ORIGINATOR     = 

OBJECT_NAME    = STARLINK-36611
OBJECT_ID      = 2026-033K
CENTER_NAME    = EARTH
REF_FRAME      = TEME
TIME_SYSTEM    = UTC
MEAN_ELEMENT_THEORY = SGP/SGP4

EPOCH          = 2026-03-08T22:19:09.840000
MEAN_MOTION    = 15.82098063
ECCENTRICITY   = .00012122
INCLINATION    = 42.9979
RA_OF_ASC_NODE = 276.0846
ARG_OF_PERICENTER = 267.7890
MEAN_ANOMALY   = 92.2843

EPHEMERIS_TYPE = 0
CLASSIFICATION_TYPE = U
NORAD_CAT_ID   = 67830
ELEMENT_SET_NO = 999
REV_AT_EPOCH   = 450
BSTAR          = .12898214E-2
MEAN_MOTION_DOT = .281139E-2
MEAN_MOTION_DDOT = 0

CCSDS_OMM_VERS = 2.0
CREATION_DATE  = 
ORIGINATOR     = 

OBJECT_NAME    = STARLINK-36661
OBJECT_ID      = 2026-033L
CENTER_NAME    = EARTH
REF_FRAME      = TEME
TIME_SYSTEM    = UTC
MEAN_ELEMENT_THEORY = SGP/SGP4

EPOCH          = 2026-03-08T22:18:04.315968
MEAN_MOTION    = 15.82129036
ECCENTRICITY   = .00029156
INCLINATION    = 42.9978
RA_OF_ASC_NODE = 276.0783
ARG_OF_PERICENTER = 254.4853
MEAN_ANOMALY   = 105.5697

EPHEMERIS_TYPE = 0
CLASSIFICATION_TYPE = U
NORAD_CAT_ID   = 67831
ELEMENT_SET_NO = 999
REV_AT_EPOCH   = 450
BSTAR          = .14692904E-2
MEAN_MOTION_DOT = .322365E-2
MEAN_MOTION_DDOT = 0

CCSDS_OMM_VERS = 2.0
CREATION_DATE  = 
ORIGINATOR     = 

OBJECT_NAME    = STARLINK-36662
OBJECT_ID      = 2026-033M
CENTER_NAME    = EARTH
REF_FRAME      = TEME
TIME_SYSTEM    = UTC
MEAN_ELEMENT_THEORY = SGP/SGP4

EPOCH          = 2026-03-09T11:58:07.443264
MEAN_MOTION    = 15.84482907
ECCENTRICITY   = .0002364
INCLINATION    = 42.9967
RA_OF_ASC_NODE = 271.6974
ARG_OF_PERICENTER = 291.4467
MEAN_ANOMALY   = 68.6153

EPHEMERIS_TYPE = 0
CLASSIFICATION_TYPE = U
NORAD_CAT_ID   = 67832
ELEMENT_SET_NO = 999
REV_AT_EPOCH   = 460
BSTAR          = .15938E-2
MEAN_MOTION_DOT = .394171E-2
MEAN_MOTION_DDOT = 0

CCSDS_OMM_VERS = 2.0
CREATION_DATE  = 
ORIGINATOR     = 

OBJECT_NAME    = STARLINK-36659
OBJECT_ID      = 2026-033N
CENTER_NAME    = EARTH
REF_FRAME      = TEME
TIME_SYSTEM    = UTC
MEAN_ELEMENT_THEORY = SGP/SGP4

EPOCH          = 2026-03-09T11:55:12.788256
MEAN_MOTION    = 15.82189056
ECCENTRICITY   = .0002245
INCLINATION    = 42.9975
RA_OF_ASC_NODE = 272.5901
ARG_OF_PERICENTER = 234.6458
MEAN_ANOMALY   = 125.4204

EPHEMERIS_TYPE = 0
CLASSIFICATION_TYPE = U
NORAD_CAT_ID   = 67833
ELEMENT_SET_NO = 999
REV_AT_EPOCH   = 459
BSTAR          = .21285E-2
MEAN_MOTION_DOT = .477086E-2
MEAN_MOTION_DDOT = 0

CCSDS_OMM_VERS = 2.0
CREATION_DATE  = 
ORIGINATOR     = 

OBJECT_NAME    = STARLINK-36655
OBJECT_ID      = 2026-033P
CENTER_NAME    = EARTH
REF_FRAME      = TEME
TIME_SYSTEM    = UTC
MEAN_ELEMENT_THEORY = SGP/SGP4

EPOCH          = 2026-03-09T13:25:02.847072
MEAN_MOTION    = 15.82054497
ECCENTRICITY   = .0001527
INCLINATION    = 42.9980
RA_OF_ASC_NODE = 272.1982
ARG_OF_PERICENTER = 274.2037
MEAN_ANOMALY   = 85.8660

EPHEMERIS_TYPE = 0
CLASSIFICATION_TYPE = U
NORAD_CAT_ID   = 67834
ELEMENT_SET_NO = 999
REV_AT_EPOCH   = 460
BSTAR          = .20563E-2
MEAN_MOTION_DOT = .45692E-2
MEAN_MOTION_DDOT = 0

CCSDS_OMM_VERS = 2.0
CREATION_DATE  = 
ORIGINATOR     = 

OBJECT_NAME    = STARLINK-36657
OBJECT_ID      = 2026-033Q
CENTER_NAME    = EARTH
REF_FRAME      = TEME
TIME_SYSTEM    = UTC
MEAN_ELEMENT_THEORY = SGP/SGP4

EPOCH          = 2026-03-08T22:14:51.182592
MEAN_MOTION    = 15.82213536
ECCENTRICITY   = .00015279
INCLINATION    = 42.9972
RA_OF_ASC_NODE = 276.0596
ARG_OF_PERICENTER = 330.3443
MEAN_ANOMALY   = 29.7342

EPHEMERIS_TYPE = 0
CLASSIFICATION_TYPE = U
NORAD_CAT_ID   = 67835
ELEMENT_SET_NO = 999
REV_AT_EPOCH   = 450
BSTAR          = .28543705E-2
MEAN_MOTION_DOT = .654225E-2
MEAN_MOTION_DDOT = 0

CCSDS_OMM_VERS = 2.0
CREATION_DATE  = 
ORIGINATOR     = 

OBJECT_NAME    = STARLINK-36650
OBJECT_ID      = 2026-033R
CENTER_NAME    = EARTH
REF_FRAME      = TEME
TIME_SYSTEM    = UTC
MEAN_ELEMENT_THEORY = SGP/SGP4

EPOCH          = 2026-03-09T13:22:52.819392
MEAN_MOTION    = 15.82108169
ECCENTRICITY   = .0001402
INCLINATION    = 42.9972
RA_OF_ASC_NODE = 272.1839
ARG_OF_PERICENTER = 288.8233
MEAN_ANOMALY   = 71.2486

EPHEMERIS_TYPE = 0
CLASSIFICATION_TYPE = U
NORAD_CAT_ID   = 67836
ELEMENT_SET_NO = 999
REV_AT_EPOCH   = 460
BSTAR          = .17001E-2
MEAN_MOTION_DOT = .375017E-2
MEAN_MOTION_DDOT = 0

CCSDS_OMM_VERS = 2.0
CREATION_DATE  = 
ORIGINATOR     = 

OBJECT_NAME    = STARLINK-36649
OBJECT_ID      = 2026-033S
CENTER_NAME    = EARTH
REF_FRAME      = TEME
TIME_SYSTEM    = UTC
MEAN_ELEMENT_THEORY = SGP/SGP4

EPOCH          = 2026-03-08T22:12:41.262912
MEAN_MOTION    = 15.82122111
ECCENTRICITY   = .00020216
INCLINATION    = 42.9975
RA_OF_ASC_NODE = 276.0478
ARG_OF_PERICENTER = 299.1116
MEAN_ANOMALY   = 60.9553

EPHEMERIS_TYPE = 0
CLASSIFICATION_TYPE = U
NORAD_CAT_ID   = 67837
ELEMENT_SET_NO = 999
REV_AT_EPOCH   = 450
BSTAR          = .14874779E-2
MEAN_MOTION_DOT = .326392E-2
MEAN_MOTION_DDOT = 0

CCSDS_OMM_VERS = 2.0
CREATION_DATE  = 
ORIGINATOR     = 

OBJECT_NAME    = STARLINK-36654
OBJECT_ID      = 2026-033T
CENTER_NAME    = EARTH
REF_FRAME      = TEME
TIME_SYSTEM    = UTC
MEAN_ELEMENT_THEORY = SGP/SGP4

EPOCH          = 2026-03-08T22:11:36.143232
MEAN_MOTION    = 15.82150491
ECCENTRICITY   = .00017519
INCLINATION    = 42.9975
RA_OF_ASC_NODE = 276.0413
ARG_OF_PERICENTER = 279.6612
MEAN_ANOMALY   = 80.4062

EPHEMERIS_TYPE = 0
CLASSIFICATION_TYPE = U
NORAD_CAT_ID   = 67838
ELEMENT_SET_NO = 999
REV_AT_EPOCH   = 450
BSTAR          = .1792547E-2
MEAN_MOTION_DOT = .397246E-2
MEAN_MOTION_DDOT = 0

CCSDS_OMM_VERS = 2.0
CREATION_DATE  = 
ORIGINATOR     = 

OBJECT_NAME    = STARLINK-36652
OBJECT_ID      = 2026-033U
CENTER_NAME    = EARTH
REF_FRAME      = TEME
TIME_SYSTEM    = UTC
MEAN_ELEMENT_THEORY = SGP/SGP4

EPOCH          = 2026-03-09T13:19:38.727840
MEAN_MOTION    = 15.82078489
ECCENTRICITY   = .000143
INCLINATION    = 42.9978
RA_OF_ASC_NODE = 272.1661
ARG_OF_PERICENTER = 265.7474
MEAN_ANOMALY   = 94.3234

EPHEMERIS_TYPE = 0
CLASSIFICATION_TYPE = U
NORAD_CAT_ID   = 67839
ELEMENT_SET_NO = 999
REV_AT_EPOCH   = 460
BSTAR          = .14842E-2
MEAN_MOTION_DOT = .324943E-2
MEAN_MOTION_DDOT = 0

CCSDS_OMM_VERS = 2.0
CREATION_DATE  = 
ORIGINATOR     = 

OBJECT_NAME    = STARLINK-36651
OBJECT_ID      = 2026-033V
CENTER_NAME    = EARTH
REF_FRAME      = TEME
TIME_SYSTEM    = UTC
MEAN_ELEMENT_THEORY = SGP/SGP4

EPOCH          = 2026-03-09T11:47:39.689376
MEAN_MOTION    = 15.82270859
ECCENTRICITY   = .000291
INCLINATION    = 42.9981
RA_OF_ASC_NODE = 272.5472
ARG_OF_PERICENTER = 241.8512
MEAN_ANOMALY   = 118.2066

EPHEMERIS_TYPE = 0
CLASSIFICATION_TYPE = U
NORAD_CAT_ID   = 67840
ELEMENT_SET_NO = 999
REV_AT_EPOCH   = 459
BSTAR          = .30639E-2
MEAN_MOTION_DOT = .708588E-2
MEAN_MOTION_DDOT = 0

