STARLINK-36144          
1 67829U 26033J   26068.49892142  .00328573  00000+0  15018-2 0  9991
2 67829  42.9980 272.6086 0001686 278.8763  81.1918 15.82053366  4594
STARLINK-36611          
1 67830U 26033K   26067.92997500  .00281139  00000+0  12898-2 0  9993
2 67830  42.9979 276.0846 0001212 267.7890  92.2843 15.82098063  4503
STARLINK-36661          
1 67831U 26033L   26067.92921662  .00322365  00000+0  14693-2 0  9992
2 67831  42.9978 276.0783 0002915 254.4853 105.5697 15.82129036  4506
STARLINK-36662          
1 67832U 26033M   26068.49869726  .00394171  00000+0  15938-2 0  9995
2 67832  42.9967 271.6974 0002364 291.4467  68.6153 15.84482907  4606
STARLINK-36659          
1 67833U 26033N   26068.49667579  .00477086  00000+0  21285-2 0  9997
2 67833  42.9975 272.5901 0002245 234.6458 125.4204 15.82189056  4597
STARLINK-36655          
1 67834U 26033P   26068.55906073  .00456920  00000+0  20563-2 0  9992
2 67834  42.9980 272.1982 0001527 274.2037  85.8660 15.82054497  4601
STARLINK-36657          
1 67835U 26033Q   26067.92698128  .00654225  00000+0  28544-2 0  9997
2 67835  42.9972 276.0596 0001527 330.3443  29.7342 15.82213536  4506
STARLINK-36650          
1 67836U 26033R   26068.55755578  .00375017  00000+0  17001-2 0  9996
2 67836  42.9972 272.1839 0001402 288.8233  71.2486 15.82108169  4607
STARLINK-36649          
1 67837U 26033S   26067.92547758  .00326392  00000+0  14875-2 0  9994
2 67837  42.9975 276.0478 0002021 299.1116  60.9553 15.82122111  4508
STARLINK-36654          
1 67838U 26033T   26067.92472388  .00397246  00000+0  17925-2 0  9996
2 67838  42.9975 276.0413 0001751 279.6612  80.4062 15.82150491  4505
STARLINK-36652          
1 67839U 26033U   26068.55530935  .00324943  00000+0  14842-2 0  9999
2 67839  42.9978 272.1661 0001430 265.7474  94.3234 15.82078489  4609
STARLINK-36651          
1 67840U 26033V   26068.49143159  .00708588  00000+0  30639-2 0  9995
2 67840  42.9981 272.5472 0002910 241.8512 118.2066 15.82270859  4593
